STARLINK-36911          
1 68008U 26039Y   26064.91668981 -.01417287  60924-3 -29397-2 0  9996
2 68008  42.9979  78.2141 0001910 263.6343 165.2268 15.98291825  2276
STARLINK-36956          
1 68009U 26039Z   26064.91668981 -.01410434  60466-3 -29045-2 0  9995
2 68009  42.9978  78.2096 0001658 269.0627 161.4995 15.98419799  2276
STARLINK-36953          
1 68010U 26039AA  26064.91668981 -.01413237  60863-3 -28655-2 0  9998
2 68010  42.9977  78.2000 0001812 265.2275 169.0796 15.98694736  2270
STARLINK-36991          
1 68011U 26039AB  26064.91668981 -.01406496  60414-3 -28308-2 0  9995
2 68011  42.9977  78.1954 0001822 266.9174 169.2244 15.98825002  2277
STARLINK-36936          
1 68012U 26039AC  26064.91668981 -.01417637  61473-3 -28097-2 0  9996
2 68012  42.9978  78.1859 0001882 267.8400 171.8856 15.99097871  2275
STARLINK-36967          
1 68013U 26039AD  26064.91668981 -.01410585  60563-3 -28829-2 0  9994
2 68013  42.9976  78.2046 0001788 266.2381 166.1323 15.98554150  2272
STARLINK-36985          
1 68014U 26039AE  26064.91668981 -.01416101  61260-3 -28288-2 0  9999
2 68014  42.9978  78.1909 0001791 271.1833 166.6870 15.98959158  2272
OBJECT A                
1 68015U 26040A   26064.75001157 -.00633725  16204-3 -61994-3 0  9992
2 68015  97.2857  12.5223 0001404  51.5499 307.8857 16.11478767  1734
OBJECT B                
1 68016U 26040B   26064.75001157 -.00512508  10940-3 -49516-3 0  9995
2 68016  97.2857  12.5234 0001565  62.3269 298.7780 16.11648501  1783
OBJECT C                
1 68017U 26040C   26064.75001157 -.00585658  14053-3 -56101-3 0  9999
2 68017  97.2857  12.5238 0001226  59.3320 302.5531 16.11788683  1780
OBJECT D                
1 68018U 26040D   26064.75001157 -.00590948  14248-3 -57422-3 0  9991
2 68018  97.2857  12.5231 0001245  52.3258 307.9363 16.11574581  1780
OBJECT E                
1 68019U 26040E   26064.75001157 -.00642985  16766-3 -60772-3 0  9990
2 68019  97.2857  12.5244 0001577  56.5543 306.8074 16.11996701  1785
OBJECT F                
1 68020U 26040F   26064.75001157 -.00656226  17389-3 -62455-3 0  9997
2 68020  97.2855  12.5239 0001490  54.1538 308.4073 16.11895027  1787
OBJECT G                
1 68021U 26040G   26064.75001157 -.00790492  24650-3 -74015-3 0  9996
2 68021  97.2853  12.5245 0001517  55.7296 308.4306 16.12158774  1782
OBJECT H                
1 68022U 26040H   26064.75001157 -.00648325  17077-3 -60393-3 0  9993
2 68022  97.2855  12.5249 0001599  57.0305 307.9489 16.12214576  1784
OBJECT J                
1 68023U 26040J   26064.75001157 -.00568349  13382-3 -52645-3 0  9997
2 68023  97.2854  12.5252 0001263  63.5408 302.2320 16.12288742  1780
